NORAD_CAT_ID,OBJECT_NAME,OBJECT_TYPE,EPOCH,MEAN_MOTION,ECCENTRICITY,INCLINATION,RA_OF_ASC_NODE,ARG_OF_PERICENTER,MEAN_ANOMALY,BSTAR,MEAN_MOTION_DOT,MEAN_MOTION_DDOT,TLE_LINE0,TLE_LINE1,TLE_LINE2,SEMIMAJOR_AXIS,PERIOD,APOGEE,PERIGEE,DECAYED
51109.0,STARLINK-3358,PAYLOAD,2024-07-21 21:34:37,15.08855114,0.0001416,53.2162,83.6814,120.9589,239.1543,0.00083688,0.00013062,0.0,0 STARLINK-3358,1 51109U 22005F   24203.89904522  .00013062  00000-0  83688-3 0  9993,2 51109  53.2162  83.6814 0001416 120.9589 239.1543 15.08855114138707,6917.834,95.437,540.679,538.72,0.0
51109.0,STARLINK-3358,PAYLOAD,2024-07-21 23:10:00,15.08861667,8.76e-05,53.2155,83.3828,89.7538,270.3554,0.0010593,0.00016621,0.0,0 STARLINK-3358,1 51109U 22005F   24203.96528482  .00016621  00000-0  10593-2 0  9996,2 51109  53.2155  83.3828 0000876  89.7538 270.3554 15.08861667140056,6917.814,95.436,540.285,539.073,0.0
51109.0,STARLINK-3358,PAYLOAD,2024-07-22 23:00:47,15.08860606,0.0002684,53.2159,78.9233,34.7696,325.3471,0.00078286,0.000122,0.0,0 STARLINK-3358,1 51109U 22005F   24204.95888709  .00012200  00000-0  78286-3 0  9990,2 51109  53.2159  78.9233 0002684  34.7696 325.3471 15.08860606138861,6917.817,95.436,541.539,537.826,0.0
51109.0,STARLINK-3358,PAYLOAD,2024-07-23 14:54:38,15.08841396,0.000134,53.2144,75.9525,52.8734,307.2381,0.00051631,7.939e-05,0.0,0 STARLINK-3358,1 51109U 22005F   24205.62128320  .00007939  00000-0  51631-3 0  9999,2 51109  53.2144  75.9525 0001340  52.8734 307.2381 15.08841396138963,6917.876,95.437,540.668,538.814,0.0
51109.0,STARLINK-3358,PAYLOAD,2024-07-23 22:51:34,15.08834846,6.13e-05,53.2147,74.4582,153.8881,206.2142,0.00039154,5.948e-05,0.0,0 STARLINK-3358,1 51109U 22005F   24205.95248344  .00005948  00000-0  39154-3 0  9998,2 51109  53.2147  74.4582 0000613 153.8881 206.2142 15.08834846139012,6917.896,95.438,540.185,539.337,0.0
51109.0,STARLINK-3358,PAYLOAD,2024-07-24 00:26:57,15.08831926,5.49e-05,53.2151,74.1622,137.8991,222.2044,0.00024301,3.581e-05,0.0,0 STARLINK-3358,1 51109U 22005F   24206.01872494  .00003581  00000-0  24301-3 0  9994,2 51109  53.2151  74.1622 0000549 137.8991 222.2044 15.08831926140366,6917.905,95.438,540.15,539.39,0.0
51109.0,STARLINK-3358,PAYLOAD,2024-07-24 22:42:21,15.08850554,5.57e-05,53.2171,69.9973,136.7081,223.3955,0.00045172,6.911e-05,0.0,0 STARLINK-3358,1 51109U 22005F   24206.94608091  .00006911  00000-0  45172-3 0  9995,2 51109  53.2171  69.9973 0000557 136.7081 223.3955 15.08850554139163,6917.848,95.437,540.098,539.328,0.0
51109.0,STARLINK-3358,PAYLOAD,2024-07-25 14:36:13,15.08847862,9.48e-05,53.2149,67.0325,53.3614,306.7465,0.0004759,7.296e-05,0.0,0 STARLINK-3358,1 51109U 22005F   24207.60848380  .00007296  00000-0  47590-3 0  9999,2 51109  53.2149  67.0325 0000948  53.3614 306.7465 15.08847862140609,6917.856,95.437,540.377,539.066,0.0
51109.0,STARLINK-3358,PAYLOAD,2024-07-26 00:08:31,15.08838514,5.13e-05,53.2174,65.2432,83.3513,276.7537,0.00027716,4.126e-05,0.0,0 STARLINK-3358,1 51109U 22005F   24208.00592562  .00004126  00000-0  27716-3 0  9999,2 51109  53.2174  65.2432 0000513  83.3513 276.7537 15.08838514140661,6917.885,95.438,540.105,539.395,0.0
51109.0,STARLINK-3358,PAYLOAD,2024-07-26 14:26:59,15.08843144,9.41e-05,53.2155,62.5668,152.8998,207.2044,0.0002891,4.317e-05,0.0,0 STARLINK-3358,1 51109U 22005F   24208.60207954  .00004317  00000-0  28910-3 0  9992,2 51109  53.2155  62.5668 0000941 152.8998 207.2044 15.08843144139413,6917.871,95.437,540.387,539.085,0.0
51109.0,STARLINK-3358,PAYLOAD,2024-07-26 20:48:31,15.08858482,5.98e-05,53.2153,61.3785,109.7596,250.346,-0.00014858,-2.653e-05,0.0,0 STARLINK-3358,1 51109U 22005F   24208.86703279 -.00002653  00000-0 -14858-3 0  9990,2 51109  53.2153  61.3785 0000598 109.7596 250.3460 15.08858482140796,6917.824,95.436,540.103,539.275,0.0
51109.0,STARLINK-3358,PAYLOAD,2024-07-26 22:23:54,15.08860758,5.92e-05,53.2151,61.0812,94.7638,265.3421,-0.00017796,-3.12e-05,0.0,0 STARLINK-3358,1 51109U 22005F   24208.93327171 -.00003120  00000-0 -17796-3 0  9995,2 51109  53.2151  61.0812 0000592  94.7638 265.3421 15.08860758139460,6917.817,95.436,540.091,539.272,0.0
51109.0,STARLINK-3358,PAYLOAD,2024-07-27 20:39:19,15.08833906,7.43e-05,53.2153,56.9182,84.3791,275.7286,1.0726e-05,-1.17e-06,0.0,0 STARLINK-3358,1 51109U 22005F   24209.86064616 -.00000117  00000-0  10726-4 0  9999,2 51109  53.2153  56.9182 0000743  84.3791 275.7286 15.08833906139603,6917.899,95.438,540.278,539.25,0.0
51109.0,STARLINK-3358,PAYLOAD,2024-07-27 22:14:42,15.08833913,7.53e-05,53.2154,56.6208,84.3432,275.7646,3.1268e-06,-2.38e-06,0.0,0 STARLINK-3358,1 51109U 22005F   24209.92688622 -.00000238  00000-0  31268-5 0  9994,2 51109  53.2154  56.6208 0000753  84.3432 275.7646 15.08833913140951,6917.899,95.438,540.285,539.243,0.0
51109.0,STARLINK-3358,PAYLOAD,2024-07-28 20:30:07,15.0883882,8e-05,53.2165,52.4584,87.842,272.2664,2.0582e-05,4e-07,0.0,0 STARLINK-3358,1 51109U 22005F   24210.85424927  .00000040  00000-0  20582-4 0  9990,2 51109  53.2165  52.4584 0000800  87.8420 272.2664 15.08838820139752,6917.884,95.438,540.302,539.196,0.0
51109.0,STARLINK-3358,PAYLOAD,2024-07-29 13:59:21,15.08838491,8.08e-05,53.2174,49.1847,81.1297,278.9786,0.00018699,2.689e-05,0.0,0 STARLINK-3358,1 51109U 22005F   24211.58288715  .00002689  00000-0  18699-3 0  9990,2 51109  53.2174  49.1847 0000808  81.1297 278.9786 15.08838491139868,6917.885,95.438,540.309,539.191,0.0
51109.0,STARLINK-3358,PAYLOAD,2024-07-29 20:20:54,15.08839772,7.6e-05,53.2169,47.9974,82.0378,278.07,0.00018819,2.709e-05,0.0,0 STARLINK-3358,1 51109U 22005F   24211.84784815  .00002709  00000-0  18819-3 0  9998,2 51109  53.2169  47.9974 0000760  82.0378 278.0700 15.08839772141241,6917.881,95.438,540.272,539.22,0.0
51109.0,STARLINK-3358,PAYLOAD,2024-07-30 12:14:45,15.08846932,0.0001489,53.2173,45.0242,82.9621,277.1541,0.00018674,2.686e-05,0.0,0 STARLINK-3358,1 51109U 22005F   24212.51024700  .00002686  00000-0  18674-3 0  9996,2 51109  53.2173  45.0242 0001489  82.9621 277.1541 15.08846932140004,6917.859,95.437,540.754,538.694,0.0
51109.0,STARLINK-3358,PAYLOAD,2024-07-31 05:43:59,15.08841844,0.0001318,53.2165,41.7529,82.3602,277.754,4.0991e-05,3.65e-06,0.0,0 STARLINK-3358,1 51109U 22005F   24213.23888857  .00000365  00000-0  40991-4 0  9997,2 51109  53.2165  41.7529 0001318  82.3602 277.7540 15.08841844141452,6917.875,95.437,540.652,538.828,0.0
51109.0,STARLINK-3358,PAYLOAD,2024-07-31 20:02:28,15.08837832,8.65e-05,53.2174,39.0743,82.3223,277.7867,-3.0001e-06,-3.35e-06,0.0,0 STARLINK-3358,1 51109U 22005F   24213.83505029 -.00000335  00000-0 -30001-5 0  9991,2 51109  53.2174  39.0743 0000865  82.3223 277.7867 15.08837832140201,6917.887,95.438,540.35,539.154,0.0
51109.0,STARLINK-3358,PAYLOAD,2024-08-01 11:56:19,15.08842269,0.0001058,53.2163,36.1039,85.1218,274.9895,0.00021324,3.108e-05,0.0,0 STARLINK-3358,1 51109U 22005F   24214.49744929  .00003108  00000-0  21324-3 0  9993,2 51109  53.2163  36.1039 0001058  85.1218 274.9895 15.08842269140306,6917.873,95.437,540.47,539.007,0.0
51109.0,STARLINK-3358,PAYLOAD,2024-08-01 21:28:37,15.08854676,9.88e-05,53.2158,34.3169,91.5137,268.5968,0.0004116,6.271e-05,0.0,0 STARLINK-3358,1 51109U 22005F   24214.89488397  .00006271  00000-0  41160-3 0  9995,2 51109  53.2158  34.3169 0000988  91.5137 268.5968 15.08854676141706,6917.836,95.437,540.384,539.017,0.0
51109.0,STARLINK-3358,PAYLOAD,2024-08-02 11:47:07,15.08826322,0.000121,53.2164,31.6431,80.1076,280.0053,-0.00021406,-3.692e-05,0.0,0 STARLINK-3358,1 51109U 22005F   24215.49105419 -.00003692  00000-0 -21406-3 0  9990,2 51109  53.2164  31.6431 0001210  80.1076 280.0053 15.08826322141790,6917.922,95.438,540.624,538.95,0.0
51109.0,STARLINK-3358,PAYLOAD,2024-08-02 21:19:25,15.08833737,0.0001192,53.2164,29.8568,90.5242,269.5887,3.5146e-05,2.71e-06,0.0,0 STARLINK-3358,1 51109U 22005F   24215.88849354  .00000271  00000-0  35146-4 0  9991,2 51109  53.2164  29.8568 0001192  90.5242 269.5887 15.08833737140513,6917.9,95.438,540.589,538.94,0.0
51109.0,STARLINK-3358,PAYLOAD,2024-08-03 05:16:21,15.08840148,0.0001227,53.2168,28.3708,86.9798,273.1334,0.00036392,5.509e-05,0.0,0 STARLINK-3358,1 51109U 22005F   24216.21969435  .00005509  00000-0  36392-3 0  9994,2 51109  53.2168  28.3708 0001227  86.9798 273.1334 15.08840148141907,6917.88,95.438,540.594,538.896,0.0
51109.0,STARLINK-3358,PAYLOAD,2024-08-03 14:48:40,15.08847565,0.0001327,53.2167,26.5863,88.0475,272.0669,0.0010711,0.00016803,0.0,0 STARLINK-3358,1 51109U 22005F   24216.61713699  .00016803  00000-0  10711-2 0  9992,2 51109  53.2167  26.5863 0001327  88.0475 272.0669 15.08847565140621,6917.857,95.437,540.64,538.804,0.0
51109.0,STARLINK-3358,PAYLOAD,2024-08-03 17:59:26,15.08854827,0.0001322,53.2169,25.9911,89.418,270.6964,0.0012003,0.00018874,0.0,0 STARLINK-3358,1 51109U 22005F   24216.74961562  .00018874  00000-0  12003-2 0  9996,2 51109  53.2169  25.9911 0001322  89.4180 270.6964 15.08854827140646,6917.835,95.437,540.615,538.786,0.0
51109.0,STARLINK-3358,PAYLOAD,2024-08-04 14:39:27,15.08846773,0.0001126,53.2179,22.1251,90.8166,269.2955,0.00029225,4.367e-05,0.0,0 STARLINK-3358,1 51109U 22005F   24217.61073178  .00004367  00000-0  29225-3 0  9997,2 51109  53.2179  22.1251 0001126  90.8166 269.2955 15.08846773140774,6917.86,95.437,540.504,538.946,0.0
51109.0,STARLINK-3358,PAYLOAD,2024-08-04 21:00:59,15.08858368,0.0001019,53.2175,20.9332,90.4275,269.6834,0.00084821,0.00013244,0.0,0 STARLINK-3358,1 51109U 22005F   24217.87569064  .00013244  00000-0  84821-3 0  9996,2 51109  53.2175  20.9332 0001019  90.4275 269.6834 15.08858368142151,6917.824,95.436,540.394,538.984,0.0
51109.0,STARLINK-3358,PAYLOAD,2024-08-05 03:22:31,15.08882726,0.0001097,53.2184,19.746,96.279,263.8327,0.0019125,0.00030316,0.0,0 STARLINK-3358,1 51109U 22005F   24218.14064345  .00030316  00000-0  19125-2 0  9992,2 51109  53.2184  19.7460 0001097  96.2790 263.8327 15.08882726142193,6917.75,95.435,540.374,538.856,0.0
